QIANFAN-33              
1 61566U 24185Q   25216.20816333  .00000174  00000+0  11655-3 0  9998
2 61566  88.9784  93.3814 0008040  27.7478 332.4126 13.96407428 50948
QIANFAN-34              
1 61567U 24185R   25216.49454740  .00000295  00000+0  18379-3 0  9994
2 61567  88.9759  93.0850 0007228  39.3375 320.8329 14.02158090 51134
QIANFAN-35              
1 61568U 24185S   25215.92299074  .00000464  00000+0  18265-3 0  9991
2 61568  88.9785  92.2546 0007359  15.1996 344.9418 14.27658574 51510
QIANFAN-36              
1 61569U 24185T   25216.16436447  .00000071  00000+0  84338-4 0  9995
2 61569  88.9774  94.6652 0008069  65.6165 294.5830 13.55544786 50280
QIANFAN-37              
1 62238U 24232B   25216.19393481  .00000063  00000+0  79767-4 0  9996
2 62238  88.9924  54.5323 0002586  94.6750 265.4696 13.50965103 81546
QIANFAN-38              
1 62239U 24232C   25215.92249574  .00000056  00000+0  68902-4 0  9991
2 62239  88.9931  54.4668 0013501 206.7041 153.3416 13.50953548 81561
QIANFAN-39              
1 62240U 24232D   25216.19158712  .00000159  00000+0  61375-4 0  9997
2 62240  88.9929  52.2607 0017517 139.8876 220.3614 14.25229695 82795
QIANFAN-40              
1 62241U 24232E   25216.17754139  .00000056  00000+0  68835-4 0  9995
2 62241  88.9958  53.9886 0012338 213.9974 146.0388 13.50959662 81965
